GLOBALSTAR M024         
1 25883U 99043A   25280.32313185  .00000015  00000+0  28456-2 0  9996
2 25883  51.9985 127.6034 0000565 325.9970 204.7034 11.10169561127314
GLOBALSTAR M027         
1 25884U 99043B   25280.18838175 -.00000104  00000+0 -15456-2 0  9999
2 25884  52.0198 209.0632 0020993 170.6551 189.4636 11.04372723153617
GLOBALSTAR M054         
1 25885U 99043C   25280.26521787 -.00000075  00000+0 -91417-4 0  9997
2 25885  52.0154 317.3859 0005224   9.7393  69.1109 11.39220726131821
GLOBALSTAR M053         
1 25886U 99043D   25280.28121142 -.00000068  00000+0  17687-4 0  9999
2 25886  51.9972 270.6604 0003325 277.7868  95.7710 11.27667493132097
GLOBALSTAR M058         
1 25907U 99049A   25280.05856023 -.00000082  00000+0  35008-4 0  9990
2 25907  51.9925 170.4481 0002536 113.0470 247.0632 11.93202913554899
GLOBALSTAR M050         
1 25908U 99049B   25280.15855961 -.00000149  00000+0 -68246-3 0  9996
2 25908  51.9973 169.4917 0008254 256.0458 271.4937 12.07458201161715
GLOBALSTAR M033         
1 25909U 99049C   25280.32000483 -.00000152  00000+0 -58021-3 0  9991
2 25909  51.9936  33.1313 0014543 134.4883 225.7156 12.20296737549434
GLOBALSTAR M055         
1 25910U 99049D   25280.28867281 -.00000081  00000+0  11262-3 0  9991
2 25910  52.0039  38.5096 0006848  10.7127 349.3869 12.29433337182070
